{
  "type": "FeatureCollection",
  "features": [
    {
      "type": "Feature",
      "properties": {
        "norad_id": 29268,
        "name": "ARIRANG-2 (KOMPSAT-2)",
        "group": "resource",
        "lat": -12.812960351248806,
        "lon": -9.832762270066675,
        "alt_km": 689.1830101613323,
        "timestamp": "2025-12-09T07:41:32.859358+00:00",
        "meta_object_name": "ARIRANG-2 (KOMPSAT-2)",
        "meta_object_id": "2006-031A",
        "meta_epoch": "2025-12-08T23:20:13.382304",
        "meta_mean_motion": 14.64489414,
        "meta_eccentricity": 0.0013717,
        "meta_inclination": 97.8258,
        "meta_ra_of_asc_node": 171.6287,
        "meta_arg_of_pericenter": 321.9848,
        "meta_mean_anomaly": 196.5971,
        "meta_ephemeris_type": 0,
        "meta_classification_type": "U",
        "meta_norad_cat_id": 29268,
        "meta_element_set_no": 999,
        "meta_rev_at_epoch": 3363,
        "meta_bstar": 0.00017144497,
        "meta_mean_motion_dot": 8.64e-06,
        "meta_mean_motion_ddot": 0,
        "tle_line1": "1 29268U 06031A   25342.97237711  .00000864  00000+0  17144-3 0  9997",
        "tle_line2": "2 29268  97.8258 171.6287 0013717 321.9848 196.5971 14.64489414 33632"
      },
      "geometry": {
        "type": "Point",
        "coordinates": [
          -9.832762270066675,
          -12.812960351248806
        ]
      }
    },
    {
      "type": "Feature",
      "properties": {
        "norad_id": 29709,
        "name": "LAPAN-TUBSAT",
        "group": "resource",
        "lat": -46.71039026241422,
        "lon": 144.6830677434563,
        "alt_km": 625.9442116608197,
        "timestamp": "2025-12-09T07:41:32.859370+00:00",
        "meta_object_name": "LAPAN-TUBSAT",
        "meta_object_id": "2007-001A",
        "meta_epoch": "2025-12-08T22:35:30.048864",
        "meta_mean_motion": 14.85663161,
        "meta_eccentricity": 0.00136794,
        "meta_inclination": 98.1252,
        "meta_ra_of_asc_node": 333.0193,
        "meta_arg_of_pericenter": 85.4098,
        "meta_mean_anomaly": 274.8678,
        "meta_ephemeris_type": 0,
        "meta_classification_type": "U",
        "meta_norad_cat_id": 29709,
        "meta_element_set_no": 999,
        "meta_rev_at_epoch": 2290,
        "meta_bstar": 0.00018403176,
        "meta_mean_motion_dot": 1.54e-05,
        "meta_mean_motion_ddot": 0,
        "tle_line1": "1 29709U 07001A   25342.94132001  .00001540  00000+0  18403-3 0  9999",
        "tle_line2": "2 29709  98.1252 333.0193 0013679  85.4098 274.8678 14.85663161 22904"
      },
      "geometry": {
        "type": "Point",
        "coordinates": [
          144.6830677434563,
          -46.71039026241422
        ]
      }
    },
    {
      "type": "Feature",
      "properties": {
        "norad_id": 31113,
        "name": "HAIYANG-1B",
        "group": "resource",
        "lat": 63.47046176842913,
        "lon": -49.328680009445975,
        "alt_km": 772.436561598699,
        "timestamp": "2025-12-09T07:41:32.859392+00:00",
        "meta_object_name": "HAIYANG-1B",
        "meta_object_id": "2007-010A",
        "meta_epoch": "2025-12-08T23:00:03.967200",
        "meta_mean_motion": 14.30962926,
        "meta_eccentricity": 0.0014422,
        "meta_inclination": 98.331,
        "meta_ra_of_asc_node": 327.3928,
        "meta_arg_of_pericenter": 48.4955,
        "meta_mean_anomaly": 311.7464,
        "meta_ephemeris_type": 0,
        "meta_classification_type": "U",
        "meta_norad_cat_id": 31113,
        "meta_element_set_no": 999,
        "meta_rev_at_epoch": 97342,
        "meta_bstar": 9.0234542e-05,
        "meta_mean_motion_dot": 1.96e-06,
        "meta_mean_motion_ddot": 0,
        "tle_line1": "1 31113U 07010A   25342.95837925  .00000196  00000+0  90235-4 0  9999",
        "tle_line2": "2 31113  98.3310 327.3928 0014422  48.4955 311.7464 14.30962926973420"
      },
      "geometry": {
        "type": "Point",
        "coordinates": [
          -49.328680009445975,
          63.47046176842913
        ]
      }
    },
    {
      "type": "Feature",
      "properties": {
        "norad_id": 31598,
        "name": "COSMO-SKYMED 1",
        "group": "resource",
        "lat": 58.45119240408033,
        "lon": 155.65453141550776,
        "alt_km": 573.82146567782,
        "timestamp": "2025-12-09T07:41:32.859412+00:00",
        "meta_object_name": "COSMO-SKYMED 1",
        "meta_object_id": "2007-023A",
        "meta_epoch": "2025-12-08T23:24:00.804384",
        "meta_mean_motion": 14.95719221,
        "meta_eccentricity": 0.0001056,
        "meta_inclination": 97.8835,
        "meta_ra_of_asc_node": 168.3499,
        "meta_arg_of_pericenter": 82.279,
        "meta_mean_anomaly": 277.8551,
        "meta_ephemeris_type": 0,
        "meta_classification_type": "U",
        "meta_norad_cat_id": 31598,
        "meta_element_set_no": 999,
        "meta_rev_at_epoch": 134,
        "meta_bstar": 0.0004210085,
        "meta_mean_motion_dot": 4.63e-05,
        "meta_mean_motion_ddot": 0,
        "tle_line1": "1 31598U 07023A   25342.97500931  .00004630  00000+0  42101-3 0  9991",
        "tle_line2": "2 31598  97.8835 168.3499 0001056  82.2790 277.8551 14.95719221  1342"
      },
      "geometry": {
        "type": "Point",
        "coordinates": [
          155.65453141550776,
          58.45119240408033
        ]
      }
    },
    {
      "type": "Feature",
      "properties": {
        "norad_id": 31698,
        "name": "TERRASAR-X",
        "group": "resource",
        "lat": 31.841602592701513,
        "lon": 173.408278258394,
        "alt_km": 506.04804958714794,
        "timestamp": "2025-12-09T07:41:32.859433+00:00",
        "meta_object_name": "TERRASAR-X",
        "meta_object_id": "2007-026A",
        "meta_epoch": "2025-12-08T12:04:27.872832",
        "meta_mean_motion": 15.19158704,
        "meta_eccentricity": 0.0001724,
        "meta_inclination": 97.4451,
        "meta_ra_of_asc_node": 347.9445,
        "meta_arg_of_pericenter": 89.3855,
        "meta_mean_anomaly": 270.7577,
        "meta_ephemeris_type": 0,
        "meta_classification_type": "U",
        "meta_norad_cat_id": 31698,
        "meta_element_set_no": 999,
        "meta_rev_at_epoch": 2427,
        "meta_bstar": 0.00014009,
        "meta_mean_motion_dot": 2.877e-05,
        "meta_mean_motion_ddot": 0,
        "tle_line1": "1 31698U 07026A   25342.50310038  .00002877  00000+0  14009-3 0  9998",
        "tle_line2": "2 31698  97.4451 347.9445 0001724  89.3855 270.7577 15.19158704 24278"
      },
      "geometry": {
        "type": "Point",
        "coordinates": [
          173.408278258394,
          31.841602592701513
        ]
      }
    },
    {
      "type": "Feature",
      "properties": {
        "norad_id": 32060,
        "name": "WORLDVIEW-1 (WV-1)",
        "group": "resource",
        "lat": 78.75254739861835,
        "lon": 60.147929322444774,
        "alt_km": 484.17280765583746,
        "timestamp": "2025-12-09T07:41:32.859446+00:00",
        "meta_object_name": "WORLDVIEW-1 (WV-1)",
        "meta_object_id": "2007-041A",
        "meta_epoch": "2025-12-08T21:53:06.561600",
        "meta_mean_motion": 15.24589511,
        "meta_eccentricity": 7.757e-05,
        "meta_inclination": 97.3841,
        "meta_ra_of_asc_node": 100.4473,
        "meta_arg_of_pericenter": 102.6667,
        "meta_mean_anomaly": 257.4658,
        "meta_ephemeris_type": 0,
        "meta_classification_type": "U",
        "meta_norad_cat_id": 32060,
        "meta_element_set_no": 999,
        "meta_rev_at_epoch": 1389,
        "meta_bstar": 0.00039710816,
        "meta_mean_motion_dot": 9.722e-05,
        "meta_mean_motion_ddot": 0,
        "tle_line1": "1 32060U 07041A   25342.91188150  .00009722  00000+0  39711-3 0  9995",
        "tle_line2": "2 32060  97.3841 100.4473 0000775 102.6667 257.4658 15.24589511 13890"
      },
      "geometry": {
        "type": "Point",
        "coordinates": [
          60.147929322444774,
          78.75254739861835
        ]
      }
    },
    {
      "type": "Feature",
      "properties": {
        "norad_id": 32289,
        "name": "YAOGAN-3",
        "group": "resource",
        "lat": -18.628876465658617,
        "lon": 12.636896096921413,
        "alt_km": 603.5729440458026,
        "timestamp": "2025-12-09T07:41:32.859457+00:00",
        "meta_object_name": "YAOGAN-3",
        "meta_object_id": "2007-055A",
        "meta_epoch": "2025-12-08T23:43:01.665408",
        "meta_mean_motion": 14.89829545,
        "meta_eccentricity": 0.00014429,
        "meta_inclination": 97.8367,
        "meta_ra_of_asc_node": 9.6465,
        "meta_arg_of_pericenter": 72.6475,
        "meta_mean_anomaly": 287.4901,
        "meta_ephemeris_type": 0,
        "meta_classification_type": "U",
        "meta_norad_cat_id": 32289,
        "meta_element_set_no": 999,
        "meta_rev_at_epoch": 97753,
        "meta_bstar": 0.00021982599,
        "meta_mean_motion_dot": 2.055e-05,
        "meta_mean_motion_ddot": 0,
        "tle_line1": "1 32289U 07055A   25342.98821372  .00002055  00000+0  21983-3 0  9994",
        "tle_line2": "2 32289  97.8367   9.6465 0001442  72.6475 287.4901 14.89829545977535"
      },
      "geometry": {
        "type": "Point",
        "coordinates": [
          12.636896096921413,
          -18.628876465658617
        ]
      }
    }
  ]
}